{"fetched_at":"2026-03-30T06:02:59Z","count":15439,"tles":[{"name":"STARLINK-35388","line1":"1 66466U 25262L   26087.74751783  .00039023  00000+0  14182-2 0  9994","line2":"2 66466  43.0007 188.3168 0003594 245.9301 114.1175 15.27619541 21828","category":"Starlink"}]}